NORAD_CAT_ID,OBJECT_NAME,OBJECT_TYPE,EPOCH,MEAN_MOTION,ECCENTRICITY,INCLINATION,RA_OF_ASC_NODE,ARG_OF_PERICENTER,MEAN_ANOMALY,BSTAR,MEAN_MOTION_DOT,MEAN_MOTION_DDOT,TLE_LINE0,TLE_LINE1,TLE_LINE2,SEMIMAJOR_AXIS,PERIOD,APOGEE,PERIGEE,DECAYED
52668.0,STARLINK-4067,PAYLOAD,2024-06-20 00:58:46,15.08823339,0.0001401,53.2169,91.7473,90.6676,269.4476,-0.00016655,-2.936e-05,0.0,0 STARLINK-4067,1 52668U 22053N   24172.04081729 -.00002936  00000-0 -16655-3 0  9994,2 52668  53.2169  91.7473 0001401  90.6676 269.4476 15.08823339116295,6917.931,95.439,540.766,538.827,0.0
52668.0,STARLINK-4067,PAYLOAD,2024-06-20 12:06:27,15.08836526,0.0001649,53.2193,89.6651,85.5284,274.5896,-3.192e-05,-7.96e-06,0.0,0 STARLINK-4067,1 52668U 22053N   24172.50448825 -.00000796  00000-0 -31920-4 0  9994,2 52668  53.2193  89.6651 0001649  85.5284 274.5896 15.08836526116361,6917.891,95.438,540.897,538.615,0.0
52668.0,STARLINK-4067,PAYLOAD,2024-06-20 18:27:59,15.0883741,0.0001208,53.2173,88.4743,92.2343,267.8787,0.00013244,1.82e-05,0.0,0 STARLINK-4067,1 52668U 22053N   24172.76944184  .00001820  00000-0  13244-3 0  9996,2 52668  53.2173  88.4743 0001208  92.2343 267.8787 15.08837410116402,6917.888,95.438,540.589,538.918,0.0
52668.0,STARLINK-4067,PAYLOAD,2024-06-20 23:14:08,15.08843587,0.0001401,53.2181,87.5872,72.1409,287.9735,0.00017506,2.5e-05,0.0,0 STARLINK-4067,1 52668U 22053N   24172.96815887  .00002500  00000-0  17506-3 0  9996,2 52668  53.2181  87.5872 0001401  72.1409 287.9735 15.08843587116430,6917.869,95.437,540.704,538.765,0.0
52668.0,STARLINK-4067,PAYLOAD,2024-06-21 04:00:17,15.08855549,0.0001435,53.2172,86.6913,88.3144,271.8012,0.00016698,2.372e-05,0.0,0 STARLINK-4067,1 52668U 22053N   24173.16687045  .00002372  00000-0  16698-3 0  9990,2 52668  53.2172  86.6913 0001435  88.3144 271.8012 15.08855549116462,6917.833,95.437,540.691,538.705,0.0
52668.0,STARLINK-4067,PAYLOAD,2024-06-21 21:29:32,15.08844429,0.0001759,53.2165,83.4202,89.3031,270.8163,0.00026984,4.01e-05,0.0,0 STARLINK-4067,1 52668U 22053N   24173.89551480  .00004010  00000-0  26984-3 0  9993,2 52668  53.2165  83.4202 0001759  89.3031 270.8163 15.08844429116578,6917.867,95.437,540.949,538.515,0.0
52668.0,STARLINK-4067,PAYLOAD,2024-06-22 03:51:05,15.08839536,0.0001415,53.2172,82.2305,80.4225,279.6927,0.00039461,5.998e-05,0.0,0 STARLINK-4067,1 52668U 22053N   24174.16047602  .00005998  00000-0  39461-3 0  9990,2 52668  53.2172  82.2305 0001415  80.4225 279.6927 15.08839536116616,6917.882,95.438,540.726,538.768,0.0
52668.0,STARLINK-4067,PAYLOAD,2024-06-22 22:55:42,15.08849983,0.0001853,53.2177,78.6565,115.8874,244.2309,-2.2191e-05,-6.41e-06,0.0,0 STARLINK-4067,1 52668U 22053N   24174.95535402 -.00000641  00000-0 -22191-4 0  9992,2 52668  53.2177  78.6565 0001853 115.8874 244.2309 15.08849983116739,6917.85,95.437,540.997,538.433,0.0
52668.0,STARLINK-4067,PAYLOAD,2024-06-23 03:41:52,15.0885095,0.0001661,53.2178,77.7695,106.2609,253.8566,-9.2163e-05,-1.755e-05,0.0,0 STARLINK-4067,1 52668U 22053N   24175.15407418 -.00001755  00000-0 -92163-4 0  9993,2 52668  53.2178  77.7695 0001661 106.2609 253.8566 15.08850950116761,6917.847,95.437,540.861,538.563,0.0
52668.0,STARLINK-4067,PAYLOAD,2024-06-23 22:46:29,15.08848824,0.0001425,53.2182,74.2014,95.0108,265.1047,-2.857e-05,-7.43e-06,0.0,0 STARLINK-4067,1 52668U 22053N   24175.94895033 -.00000743  00000-0 -28570-4 0  9991,2 52668  53.2182  74.2014 0001425  95.0108 265.1047 15.08848824116880,6917.853,95.437,540.704,538.733,0.0
52668.0,STARLINK-4067,PAYLOAD,2024-06-24 21:01:53,15.08834227,0.0001401,53.2184,70.0383,91.1992,268.9161,1.7144e-05,-1.5e-07,0.0,0 STARLINK-4067,1 52668U 22053N   24176.87631944 -.00000015  00000-0  17144-4 0  9999,2 52668  53.2184  70.0383 0001401  91.1992 268.9161 15.08834227117024,6917.898,95.438,540.732,538.794,0.0
52668.0,STARLINK-4067,PAYLOAD,2024-06-24 22:37:17,15.08835199,0.0001509,53.2184,69.7409,84.8346,275.2818,2.6104e-05,1.27e-06,0.0,0 STARLINK-4067,1 52668U 22053N   24176.94255933  .00000127  00000-0  26104-4 0  9996,2 52668  53.2184  69.7409 0001509  84.8346 275.2818 15.08835199117039,6917.895,95.438,540.804,538.716,0.0
52668.0,STARLINK-4067,PAYLOAD,2024-06-25 00:12:40,15.08836829,0.0001537,53.2187,69.444,90.3198,269.797,3.7988e-05,3.17e-06,0.0,0 STARLINK-4067,1 52668U 22053N   24177.00879792  .00000317  00000-0  37988-4 0  9992,2 52668  53.2187  69.4440 0001537  90.3198 269.7970 15.08836829117041,6917.89,95.438,540.818,538.692,0.0
52668.0,STARLINK-4067,PAYLOAD,2024-06-25 20:52:40,15.08848542,0.0001553,53.2182,65.5809,116.7491,243.366,-4.6575e-06,-3.62e-06,0.0,0 STARLINK-4067,1 52668U 22053N   24177.86991204 -.00000362  00000-0 -46575-5 0  9994,2 52668  53.2182  65.5809 0001553 116.7491 243.3660 15.08848542117172,6917.854,95.437,540.794,538.645,0.0
52668.0,STARLINK-4067,PAYLOAD,2024-06-25 22:28:04,15.08822225,0.0001713,53.2188,65.2826,77.9283,282.1901,0.00040294,6.127e-05,0.0,0 STARLINK-4067,1 52668U 22053N   24177.93615800  .00006127  00000-0  40294-3 0  9990,2 52668  53.2188  65.2826 0001713  77.9283 282.1901 15.08822225117189,6917.935,95.439,540.985,538.615,0.0
52668.0,STARLINK-4067,PAYLOAD,2024-06-26 00:03:27,15.08795364,0.0001989,53.219,64.9781,76.6801,283.4413,0.00086064,0.00013419,0.0,0 STARLINK-4067,1 52668U 22053N   24178.00240321  .00013419  00000-0  86064-3 0  9998,2 52668  53.2190  64.9781 0001989  76.6801 283.4413 15.08795364117191,6918.017,95.44,541.258,538.506,0.0
52668.0,STARLINK-4067,PAYLOAD,2024-06-26 23:54:14,15.08841177,0.0001515,53.2188,60.5145,84.772,275.3445,5.841e-05,6.42e-06,0.0,0 STARLINK-4067,1 52668U 22053N   24178.99599607  .00000642  00000-0  58410-4 0  9999,2 52668  53.2188  60.5145 0001515  84.7720 275.3445 15.08841177117345,6917.877,95.437,540.79,538.694,0.0
52668.0,STARLINK-4067,PAYLOAD,2024-06-27 22:09:37,15.08851609,0.0001413,53.2175,56.3585,101.5487,258.5664,-9.2087e-05,-1.754e-05,0.0,0 STARLINK-4067,1 52668U 22053N   24179.92335444 -.00001754  00000-0 -92087-4 0  9995,2 52668  53.2175  56.3585 0001413 101.5487 258.5664 15.08851609117489,6917.845,95.437,540.687,538.732,0.0
52668.0,STARLINK-4067,PAYLOAD,2024-06-28 09:17:19,15.08853315,0.0001405,53.2174,54.2767,105.7382,254.3765,2.674e-05,1.38e-06,0.0,0 STARLINK-4067,1 52668U 22053N   24180.38702756  .00000138  00000-0  26740-4 0  9997,2 52668  53.2174  54.2767 0001405 105.7382 254.3765 15.08853315117558,6917.84,95.437,540.677,538.733,0.0
52668.0,STARLINK-4067,PAYLOAD,2024-06-28 20:25:01,15.08840472,0.0001493,53.217,52.1961,100.4329,259.6831,0.00053508,8.238e-05,0.0,0 STARLINK-4067,1 52668U 22053N   24180.85071405  .00008238  00000-0  53508-3 0  9999,2 52668  53.2170  52.1961 0001493 100.4329 259.6831 15.08840472117627,6917.879,95.438,540.777,538.711,0.0
52668.0,STARLINK-4067,PAYLOAD,2024-06-28 22:00:23,15.08862548,0.0001245,53.2163,51.8982,101.2306,258.8826,0.00044972,6.881e-05,0.0,0 STARLINK-4067,1 52668U 22053N   24180.91694328  .00006881  00000-0  44972-3 0  9998,2 52668  53.2163  51.8982 0001245 101.2306 258.8826 15.08862548117631,6917.811,95.436,540.538,538.815,0.0
52668.0,STARLINK-4067,PAYLOAD,2024-06-29 20:15:49,15.08829375,0.0001327,53.2169,47.7324,114.3048,245.8083,-7.1092e-05,-1.419e-05,0.0,0 STARLINK-4067,1 52668U 22053N   24181.84432268 -.00001419  00000-0 -71092-4 0  9992,2 52668  53.2169  47.7324 0001327 114.3048 245.8083 15.08829375117777,6917.913,95.438,540.696,538.86,0.0
52668.0,STARLINK-4067,PAYLOAD,2024-06-29 21:51:12,15.08826957,0.0001141,53.2168,47.4354,86.8719,273.2404,-0.00011861,-2.174e-05,0.0,0 STARLINK-4067,1 52668U 22053N   24181.91056543 -.00002174  00000-0 -11861-3 0  9994,2 52668  53.2168  47.4354 0001141  86.8719 273.2404 15.08826957117784,6917.92,95.438,540.575,538.996,0.0
52668.0,STARLINK-4067,PAYLOAD,2024-06-30 21:41:59,15.08839336,0.0001064,53.216,42.9792,72.6888,287.422,0.0002496,3.687e-05,0.0,0 STARLINK-4067,1 52668U 22053N   24182.90416610  .00003687  00000-0  24960-3 0  9991,2 52668  53.2160  42.9792 0001064  72.6888 287.4220 15.08839336117931,6917.882,95.438,540.483,539.011,0.0
52668.0,STARLINK-4067,PAYLOAD,2024-07-01 15:11:14,15.08849656,0.0001126,53.2165,39.7087,69.2506,290.8607,0.00051265,7.882e-05,0.0,0 STARLINK-4067,1 52668U 22053N   24183.63280540  .00007882  00000-0  51265-3 0  9992,2 52668  53.2165  39.7087 0001126  69.2506 290.8607 15.08849656118041,6917.851,95.437,540.495,538.937,0.0
52668.0,STARLINK-4067,PAYLOAD,2024-07-01 21:32:46,15.0886579,0.0001076,53.2177,38.5216,81.9343,278.1772,0.00071697,0.00011149,0.0,0 STARLINK-4067,1 52668U 22053N   24183.89775902  .00011149  00000-0  71697-3 0  9993,2 52668  53.2177  38.5216 0001076  81.9343 278.1772 15.08865790118082,6917.802,95.436,540.411,538.922,0.0
52668.0,STARLINK-4067,PAYLOAD,2024-07-02 07:05:05,15.08855134,0.000112,53.217,36.7362,84.89,275.222,0.00013972,1.937e-05,0.0,0 STARLINK-4067,1 52668U 22053N   24184.29519735  .00001937  00000-0  13972-3 0  9994,2 52668  53.2170  36.7362 0001120  84.8900 275.2220 15.08855134118142,6917.834,95.437,540.474,538.924,0.0
52668.0,STARLINK-4067,PAYLOAD,2024-07-02 15:02:00,15.08839776,0.0001186,53.2172,35.2502,96.7429,263.3698,-0.00030177,-5.087e-05,0.0,0 STARLINK-4067,1 52668U 22053N   24184.62639905 -.00005087  00000-0 -30177-3 0  9991,2 52668  53.2172  35.2502 0001186  96.7429 263.3698 15.08839776118190,6917.881,95.438,540.567,538.926,0.0
52668.0,STARLINK-4067,PAYLOAD,2024-07-02 19:48:10,15.08842733,0.0001028,53.2176,34.3588,107.8063,252.3041,1.5519e-05,-4.1e-07,0.0,0 STARLINK-4067,1 52668U 22053N   24184.82511819 -.00000041  00000-0  15519-4 0  9994,2 52668  53.2176  34.3588 0001028 107.8063 252.3041 15.08842733118222,6917.872,95.437,540.448,539.026,0.0
52668.0,STARLINK-4067,PAYLOAD,2024-07-02 21:23:33,15.08846435,0.0001009,53.2175,34.0613,105.2559,254.8545,0.00025871,3.833e-05,0.0,0 STARLINK-4067,1 52668U 22053N   24184.89135780  .00003833  00000-0  25871-3 0  9992,2 52668  53.2175  34.0613 0001009 105.2559 254.8545 15.08846435118238,6917.861,95.437,540.424,539.028,0.0
